{
    "links": {
        "self": "http://www.neowsapp.com/rest/v1/neo/3843484?api_key=iIulBulltgU6a56xZRHN4H3l9WmuAYTsLGpBGhQ2"
    },
    "id": "3843484",
    "neo_reference_id": "3843484",
    "name": "(2019 PN)",
    "designation": "2019 PN",
    "nasa_jpl_url": "http://ssd.jpl.nasa.gov/sbdb.cgi?sstr=3843484",
    "absolute_magnitude_h": 21.6,
    "estimated_diameter": {
        "kilometers": {
            "estimated_diameter_min": 0.1272198785,
            "estimated_diameter_max": 0.2844722965
        },
        "meters": {
            "estimated_diameter_min": 127.2198785394,
            "estimated_diameter_max": 284.4722965033
        },
        "miles": {
            "estimated_diameter_min": 0.0790507431,
            "estimated_diameter_max": 0.1767628354
        },
        "feet": {
            "estimated_diameter_min": 417.3880663071,
            "estimated_diameter_max": 933.3080892598
        }
    },
    "is_potentially_hazardous_asteroid": false,
    "close_approach_data": [
        {
            "close_approach_date": "2019-09-06",
            "close_approach_date_full": "2019-Sep-06 05:22",
            "epoch_date_close_approach": 1567747320000,
            "relative_velocity": {
                "kilometers_per_second": "12.5229333481",
                "kilometers_per_hour": "45082.5600531002",
                "miles_per_hour": "28012.5496063278"
            },
            "miss_distance": {
                "astronomical": "0.3548592943",
                "lunar": "138.0402654827",
                "kilometers": "53086194.576983141",
                "miles": "32986231.7182477058"
            },
            "orbiting_body": "Earth"
        }
    ],
    "orbital_data": {
        "orbit_id": "1",
        "orbit_determination_date": "2019-08-08 06:42:02",
        "first_observation_date": "2019-08-04",
        "last_observation_date": "2019-08-08",
        "data_arc_in_days": 4,
        "observations_used": 16,
        "orbit_uncertainty": "9",
        "minimum_orbit_intersection": ".354144",
        "jupiter_tisserand_invariant": "4.475",
        "epoch_osculation": "2458700.5",
        "eccentricity": ".2094404498152383",
        "semi_major_axis": "1.474958592235527",
        "inclination": "24.49978315960924",
        "ascending_node_longitude": "143.659354966755",
        "orbital_period": "654.2868157722653",
        "perihelion_distance": "1.166042601218868",
        "perihelion_argument": "271.4543613490968",
        "aphelion_distance": "1.783874583252187",
        "perihelion_time": "2458820.172458721346",
        "mean_anomaly": "294.1541291966367",
        "mean_motion": ".5502174143232371",
        "equinox": "J2000",
        "orbit_class": {
            "orbit_class_type": "AMO",
            "orbit_class_description": "Near-Earth asteroid orbits similar to that of 1221 Amor",
            "orbit_class_range": "1.017 AU < q (perihelion) < 1.3 AU"
        }
    },
    "is_sentry_object": false
}